KUZGTU 1 (RS47S)        
1 57217U 23091AV  26165.81022238  .00011504  00000+0  40000-3 0  9990
2 57217  97.5070 230.2658 0012348 105.3135 254.9470 15.29815267164013
SONATE-2                
1 59112U 24043Q   26165.37765256  .00039204  00000+0  51236-3 0  9999
2 59112  97.5521 315.6018 0006925 204.5618 155.5308 15.58528868127453
MESAT1                  
1 60209U 24125G   26165.86561160  .00052587  00000+0  57794-3 0  9995
2 60209  97.2288  23.2962 0009300 212.0130 148.0565 15.62980922109205
OOV-CUBE (TUBSAT-30)    
1 60240U 24128F   26165.72660227  .00001982  00000+0  16016-3 0  9997
2 60240  61.9946 234.1532 0044922 133.1554 227.3306 15.02765736105744
COLIBRI-S (RS67S)       
1 61746U 24199M   26165.86354444  .00020941  00000+0  40668-3 0  9999
2 61746  97.2997  39.6971 0006274 290.0185  70.0389 15.47642685137059
HORS 3 (RS81S)          
1 61753U 24199U   26165.83705582  .00034123  00000+0  51209-3 0  9997
2 61753  97.2983  41.6317 0003712 292.4292  67.6568 15.54832313137191
HORS 4 (RS82S)          
1 61754U 24199V   26165.74052929  .00044644  00000+0  56275-3 0  9995
2 61754  97.2930  42.7191 0002989 274.5139  85.5776 15.59483989137266
SIT-2086                
1 61764U 24199AF  26165.74800779  .00034123  00000+0  54831-3 0  9997
2 61764  97.2939  42.0260 0004381 263.8111  96.2643 15.52938837134051
HYPERVIEW 1G (RS66S)    
1 61772U 24199AP  26165.83967816  .00134471  00000+0  88413-3 0  9992
2 61772  97.2882  45.4418 0003246 230.5733 129.5245 15.75294454134300
ALTAIR (RS65S)          
1 61779U 24199AW  26165.83336881  .00009002  00000+0  25051-3 0  9991
2 61779  97.3032  35.2003 0011324 320.7173  39.3249 15.36990796136750
ASRTU-1 (AO-123)        
1 61781U 24199AY  26165.88437065  .00006962  00000+0  20270-3 0  9995
2 61781  97.3004  34.5765 0012508 323.2971  36.7415 15.35647245133578
SAMSAT-IONOSPHERE (RS7*)
1 61784U 24199BB  26165.81078661  .00041566  00000+0  56563-3 0  9997
2 61784  97.2950  41.6431 0005820 289.0093  71.0531 15.57440973137198
RTU MIREA 1 (RS51S)     
1 61785U 24199BC  26165.84043597  .00052326  00000+0  62476-3 0  9997
2 61785  97.2940  42.4933 0005454 280.2573  79.8069 15.60866393134105
TEVEL2-4                
1 63213U 25052D   26165.63912802  .00017506  00000+0  52486-3 0  9996
2 63213  97.3916  62.0269 0004834 108.6515 251.5253 15.34534475 69720
TEVEL2-5                
1 63214U 25052E   26165.65934322  .00017465  00000+0  52650-3 0  9997
2 63214  97.3912  61.9959 0004735 109.6551 250.5203 15.34362309 69721
TEVEL2-6                
1 63215U 25052F   26165.67161609  .00017719  00000+0  53470-3 0  9993
2 63215  97.3918  61.9926 0004650 109.6687 250.5058 15.34327721 69725
TEVEL2-1                
1 63217U 25052H   26165.63453016  .00016517  00000+0  50712-3 0  9998
2 63217  97.3887  61.5830 0004669 118.6962 241.4750 15.33795129 69704
TEVEL2-3                
1 63218U 25052J   26165.62926486  .00016309  00000+0  49991-3 0  9990
2 63218  97.3893  61.5992 0004635 118.6310 241.5399 15.33849370 69709
TEVEL2-2                
1 63219U 25052K   26165.63485824  .00016333  00000+0  50139-3 0  9991
2 63219  97.3888  61.5857 0004659 119.6301 240.5407 15.33802849 69700
TEVEL2-9                
1 63237U 25052AD  26165.67431105  .00015140  00000+0  49429-3 0  9993
2 63237  97.3950  61.0056 0007595 137.7538 222.4290 15.31831968 69645
TEVEL2-7                
1 63238U 25052AE  26165.64940148  .00014819  00000+0  48830-3 0  9990
2 63238  97.3954  60.8982 0007668 138.2760 221.9068 15.31536758 69634
TEVEL2-8                
1 63239U 25052AF  26165.65762729  .00015046  00000+0  49598-3 0  9994
2 63239  97.3952  60.8832 0007683 139.0563 221.1257 15.31520897 69633
INNOSAT 16 (RS92S7)     
1 64878U 25155C   26165.83734833  .00005392  00000+0  21589-3 0  9996
2 64878  97.4560 132.9726 0010277 183.6014 176.5151 15.25435636 80314
GEOSCAN 6 (RS92S6)      
1 64879U 25155D   26165.82731456  .00009444  00000+0  32635-3 0  9990
2 64879  97.4552 134.3700 0008043 170.0713 190.0688 15.30113765 80406
GEOSCAN 1 (RS92S1)      
1 64880U 25155E   26165.83067823  .00009714  00000+0  32952-3 0  9995
2 64880  97.4549 134.5193 0007998 169.6617 190.4789 15.30706437 80418
239ALFEROV (RS61S)      
1 64881U 25155F   26165.86895844  .00013949  00000+0  44095-3 0  9997
2 64881  97.4549 135.1114 0007733 166.3530 193.7923 15.32886141 80457
GEOSCAN 2 (RS92S2)      
1 64890U 25155Q   26165.82478002  .00009685  00000+0  32584-3 0  9998
2 64890  97.4547 134.6650 0007844 156.4724 203.6877 15.30976964 80429
GEOSCAN 5 (RS92S5)      
1 64891U 25155R   26165.85846323  .00013629  00000+0  42675-3 0  9992
2 64891  97.4541 135.2376 0006429 169.8004 190.3370 15.33204293 80469
GEOSCAN 4 (RS92S4)      
1 64892U 25155S   26165.84288878  .00013394  00000+0  41746-3 0  9994
2 64892  97.4545 135.2695 0006481 169.5906 190.5471 15.33356819 80460
GEOSCAN 3 (RS92S3)      
1 64893U 25155T   26165.84666108  .00016571  00000+0  48457-3 0  9997
2 64893  97.4533 135.6964 0006423 167.7369 192.4031 15.35328687 80490
